[{"OBJECT_NAME":"STARLINK-30244","OBJECT_ID":"2023-119N","EPOCH":"2026-03-09T22:00:01.999584","MEAN_MOTION":15.15332542,"ECCENTRICITY":0.00013034,"INCLINATION":43.001,"RA_OF_ASC_NODE":79.7292,"ARG_OF_PERICENTER":272.6934,"MEAN_ANOMALY":228.3692,"EPHEMERIS_TYPE":0,"CLASSIFICATION_TYPE":"U","NORAD_CAT_ID":57614,"ELEMENT_SET_NO":999,"REV_AT_EPOCH":567,"BSTAR":0.067322769,"MEAN_MOTION_DOT":0.01410282,"MEAN_MOTION_DDOT":0},{"OBJECT_NAME":"VSP RF A1","OBJECT_ID":"2024-043AP","EPOCH":"2026-03-07T00:44:15.345024","MEAN_MOTION":15.26179596,"ECCENTRICITY":0.00094313,"INCLINATION":97.5247,"RA_OF_ASC_NODE":201.5379,"ARG_OF_PERICENTER":234.6315,"MEAN_ANOMALY":125.4042,"EPHEMERIS_TYPE":0,"CLASSIFICATION_TYPE":"U","NORAD_CAT_ID":59135,"ELEMENT_SET_NO":999,"REV_AT_EPOCH":11140,"BSTAR":2.5198753e-5,"MEAN_MOTION_DOT":5.77e-6,"MEAN_MOTION_DDOT":0}]
